$$SOE
2459580.500000000, A.D. 2022-Jan-01 00:00:00.0000, -4.172594171465755E+08, 4.390096924401349E+07, -3.505424690361797E+07,
2459587.500000000, A.D. 2022-Jan-08 00:00:00.0000, -4.186526821639525E+08, 3.453140256138922E+07, -3.524343387814924E+07,
2459594.500000000, A.D. 2022-Jan-15 00:00:00.0000, -4.197746988936290E+08, 2.513946044822873E+07, -3.540978054470061E+07,
2459601.500000000, A.D. 2022-Jan-22 00:00:00.0000, -4.206256336111389E+08, 1.573128225673033E+07, -3.555325517091419E+07,
2459608.500000000, A.D. 2022-Jan-29 00:00:00.0000, -4.212057096778522E+08, 6.312975537697800E+06, -3.567383106889298E+07,
2459615.500000000, A.D. 2022-Feb-05 00:00:00.0000, -4.215152085648491E+08, -3.109380469833015E+06, -3.577148631585354E+07,
2459622.500000000, A.D. 2022-Feb-12 00:00:00.0000, -4.215544689591393E+08, -1.252973244469124E+07, -3.584620378253417E+07,
2459629.500000000, A.D. 2022-Feb-19 00:00:00.0000, -4.213238852691936E+08, -2.194204931361254E+07, -3.589797115320690E+07,
2459636.500000000, A.D. 2022-Feb-26 00:00:00.0000, -4.208239068342471E+08, -3.134031802738507E+07, -3.592678087531412E+07,
2459643.500000000, A.D. 2022-Mar-05 00:00:00.0000, -4.200550376735290E+08, -4.071853939925560E+07, -3.593263010340656E+07,
2459650.500000000, A.D. 2022-Mar-12 00:00:00.0000, -4.190178365497580E+08, -5.007072407067654E+07, -3.591552066276299E+07,
2459657.500000000, A.D. 2022-Mar-19 00:00:00.0000, -4.177129172734962E+08, -5.939088857669397E+07, -3.587545903688161E+07,
2459664.500000000, A.D. 2022-Mar-26 00:00:00.0000, -4.161409492263180E+08, -6.867305151732770E+07, -3.581245638192599E+07,
2459671.500000000, A.D. 2022-Apr-02 00:00:00.0000, -4.143026580372714E+08, -7.791122989002581E+07, -3.572652857972893E+07,
2459678.500000000, A.D. 2022-Apr-09 00:00:00.0000, -4.121988261430708E+08, -8.709943557657972E+07, -3.561769635452560E+07,
2459685.500000000, A.D. 2022-Apr-16 00:00:00.0000, -4.098302928767872E+08, -9.623167132874073E+07, -3.548598543296959E+07,
2459692.500000000, A.D. 2022-Apr-23 00:00:00.0000, -4.071979553556520E+08, -1.053019251678342E+08, -3.533142654253490E+07,
2459699.500000000, A.D. 2022-Apr-30 00:00:00.0000, -4.043027720419562E+08, -1.143041654450933E+08, -3.515405526076242E+07,
2459706.500000000, A.D. 2022-May-07 00:00:00.0000, -4.011457659219258E+08, -1.232323385379215E+08, -3.495391215860780E+07,
2459713.500000000, A.D. 2022-May-14 00:00:00.0000, -3.977280259210458E+08, -1.320803661434998E+08, -3.473104311773145E+07,
2459720.500000000, A.D. 2022-May-21 00:00:00.0000, -3.940507085927123E+08, -1.408421414106287E+08, -3.448549957361049E+07,
2459727.500000000, A.D. 2022-May-28 00:00:00.0000, -3.901150405656696E+08, -1.495115248703828E+08, -3.421733871943591E+07,
2459734.500000000, A.D. 2022-Jun-04 00:00:00.0000, -3.859223214825104E+08, -1.580823404813765E+08, -3.392662372280323E+07,
2459741.500000000, A.D. 2022-Jun-11 00:00:00.0000, -3.814739272955245E+08, -1.665483717902589E+08, -3.361342396933448E+07,
2459748.500000000, A.D. 2022-Jun-18 00:00:00.0000, -3.767713138925176E+08, -1.749033581971422E+08, -3.327781533656815E+07,
2459755.500000000, A.D. 2022-Jun-25 00:00:00.0000, -3.718160210349433E+08, -1.831409913630543E+08, -3.291988050437237E+07,
2459762.500000000, A.D. 2022-Jul-02 00:00:00.0000, -3.666096764870775E+08, -1.912549118302627E+08, -3.253970932048641E+07,
2459769.500000000, A.D. 2022-Jul-09 00:00:00.0000, -3.611539999598886E+08, -1.992387056847164E+08, -3.213739924355587E+07,
2459776.500000000, A.D. 2022-Jul-16 00:00:00.0000, -3.554508069395618E+08, -2.070859001850560E+08, -3.171305577117260E+07,
2459783.500000000, A.D. 2022-Jul-23 00:00:00.0000, -3.495020146143824E+08, -2.147899582893562E+08, -3.126679264607246E+07,
2459790.500000000, A.D. 2022-Jul-30 00:00:00.0000, -3.433096498333477E+08, -2.223442754453380E+08, -3.079873212388074E+07,
2459797.500000000, A.D. 2022-Aug-06 00:00:00.0000, -3.368758555185968E+08, -2.297421780095457E+08, -3.030900558141464E+07,
2459804.500000000, A.D. 2022-Aug-13 00:00:00.0000, -3.302028963762441E+08, -2.369769205543966E+08, -2.979775416642725E+07,
2459811.500000000, A.D. 2022-Aug-20 00:00:00.0000, -3.232931654952490E+08, -2.440416825810426E+08, -2.926512938723513E+07,
2459818.500000000, A.D. 2022-Aug-27 00:00:00.0000, -3.161491917868981E+08, -2.509295653826954E+08, -2.871129370946220E+07,
2459825.500000000, A.D. 2022-Sep-03 00:00:00.0000, -3.087736480399588E+08, -2.576335891910123E+08, -2.813642119384377E+07,
2459832.500000000, A.D. 2022-Sep-10 00:00:00.0000, -3.011693595268584E+08, -2.641466906066110E+08, -2.754069818384539E+07,
2459839.500000000, A.D. 2022-Sep-17 00:00:00.0000, -2.933393131582255E+08, -2.704617203428807E+08, -2.692432404841632E+07,
2459846.500000000, A.D. 2022-Sep-24 00:00:00.0000, -2.852866671526581E+08, -2.765714413645582E+08, -2.628751199212687E+07,
2459853.500000000, A.D. 2022-Oct-01 00:00:00.0000, -2.770147610097058E+08, -2.824685274779705E+08, -2.563048995927735E+07,
2459860.500000000, A.D. 2022-Oct-08 00:00:00.0000, -2.685271254076223E+08, -2.881455618898414E+08, -2.495350162962183E+07,
2459867.500000000, A.D. 2022-Oct-15 00:00:00.0000, -2.598274929870740E+08, -2.935950345787997E+08, -2.425680732531381E+07,
2459874.500000000, A.D. 2022-Oct-22 00:00:00.0000, -2.509198122318029E+08, -2.988093402119429E+08, -2.354068476982091E+07,
2459881.500000000, A.D. 2022-Oct-29 00:00:00.0000, -2.418082619793766E+08, -3.037807792552702E+08, -2.280543014338963E+07,
2459888.500000000, A.D. 2022-Nov-05 00:00:00.0000, -2.324972644954108E+08, -3.085015595971720E+08, -2.205135940682037E+07,
2459895.500000000, A.D. 2022-Nov-12 00:00:00.0000, -2.229914991064791E+08, -3.129637974807751E+08, -2.127880961212876E+07,
2459902.500000000, A.D. 2022-Nov-19 00:00:00.0000, -2.132959171362404E+08, -3.171595187676729E+08, -2.048814021402732E+07,
2459909.500000000, A.D. 2022-Nov-26 00:00:00.0000, -2.034157579028958E+08, -3.210806610092427E+08, -1.967973444114991E+07,
2459916.500000000, A.D. 2022-Dec-03 00:00:00.0000, -1.933565656306388E+08, -3.247190764301670E+08, -1.885400074656488E+07,
2459923.500000000, A.D. 2022-Dec-10 00:00:00.0000, -1.831242072497640E+08, -3.280665359119944E+08, -1.801137434407990E+07,
2459930.500000000, A.D. 2022-Dec-17 00:00:00.0000, -1.727248910811774E+08, -3.311147341177319E+08, -1.715231883792397E+07,
2459937.500000000, A.D. 2022-Dec-24 00:00:00.0000, -1.621651863119959E+08, -3.338552959468611E+08, -1.627732796335912E+07,
2459944.500000000, A.D. 2022-Dec-31 00:00:00.0000, -1.514520429124741E+08, -3.362797843458424E+08, -1.538692746335670E+07,
2459951.500000000, A.D. 2023-Jan-07 00:00:00.0000, -1.405928118694817E+08, -3.383797086554413E+08, -1.448167703425917E+07,
2459958.500000000, A.D. 2023-Jan-14 00:00:00.0000, -1.295952676899443E+08, -3.401465331538144E+08, -1.356217211898758E+07,
2459965.500000000, A.D. 2023-Jan-21 00:00:00.0000, -1.184676337918031E+08, -3.415716891377152E+08, -1.262904574690145E+07,
2459972.500000000, A.D. 2023-Jan-28 00:00:00.0000, -1.072186070735309E+08, -3.426465909244041E+08, -1.168297077093635E+07,
2459979.500000000, A.D. 2023-Feb-04 00:00:00.0000, -9.585738181482790E+07, -3.433626529492402E+08, -1.072466223220849E+07,
2459986.500000000, A.D. 2023-Feb-11 00:00:00.0000, -8.439367462821862E+07, -3.437113083680713E+08, -9.754879698149011E+06,
2459993.500000000, A.D. 2023-Feb-18 00:00:00.0000, -7.283775042570338E+07, -3.436840302161088E+08, -8.774429628587380E+06,
2460000.500000000, A.D. 2023-Feb-25 00:00:00.0000, -6.120044901109932E+07, -3.432723555261726E+08, -7.784167797885567E+06,
2460007.500000000, A.D. 2023-Mar-04 00:00:00.0000, -4.949321203685039E+07, -3.424679126407066E+08, -6.785001769390449E+06,
2460014.500000000, A.D. 2023-Mar-11 00:00:00.0000, -3.772811010081986E+07, -3.412624519827730E+08, -5.777893410469905E+06,
2460021.500000000, A.D. 2023-Mar-18 00:00:00.0000, -2.591786970009765E+07, -3.396478806120672E+08, -4.763861438665375E+06,
2460028.500000000, A.D. 2023-Mar-25 00:00:00.0000, -1.407589955798223E+07, -3.376163008955792E+08, -3.743983999458313E+06,
2460035.500000000, A.D. 2023-Apr-01 00:00:00.0000, -2.216315567949011E+06, -3.351600531822780E+08, -2.719401255914643E+06,
2460042.500000000, A.D. 2023-Apr-08 00:00:00.0000, 9.646035419061232E+06, -3.322717615343063E+08, -1.691317802254423E+06,
2460049.500000000, A.D. 2023-Apr-15 00:00:00.0000, 2.149555107972762E+07, -3.289443838851003E+08, -6.610047407746613E+05,
2460056.500000000, A.D. 2023-Apr-22 00:00:00.0000, 3.331585070830333E+07, -3.251712699210146E+08, 3.701982046982199E+05,
2460063.500000000, A.D. 2023-Apr-29 00:00:00.0000, 4.508975724429488E+07, -3.209462246529297E+08, 1.400880520727336E+06,
2460070.500000000, A.D. 2023-May-06 00:00:00.0000, 5.679928315237159E+07, -3.162635760762447E+08, 2.429559044454575E+06,
2460077.500000000, A.D. 2023-May-13 00:00:00.0000, 6.842561993369634E+07, -3.111182479353415E+08, 3.454676491885617E+06,
2460084.500000000, A.D. 2023-May-20 00:00:00.0000, 7.994913234239671E+07, -3.055058381337996E+08, 4.474600383468777E+06,
2460091.500000000, A.D. 2023-May-27 00:00:00.0000, 9.134935842260244E+07, -2.994227027794862E+08, 5.487622425296560E+06,
2460098.500000000, A.D. 2023-Jun-03 00:00:00.0000, 1.026050164242103E+08, -2.928660456855906E+08, 6.491958428525269E+06,
2460105.500000000, A.D. 2023-Jun-10 00:00:00.0000, 1.136940196952706E+08, -2.858340130523835E+08, 7.485748856013581E+06,
2460112.500000000, A.D. 2023-Jun-17 00:00:00.0000, 1.245935007785566E+08, -2.783257929441302E+08, 8.467060081754431E+06,
2460119.500000000, A.D. 2023-Jun-24 00:00:00.0000, 1.352798462164687E+08, -2.703417188821039E+08, 9.433886443078905E+06,
2460126.500000000, A.D. 2023-Jul-01 00:00:00.0000, 1.457287435207502E+08, -2.618833758973841E+08, 1.038415323909809E+07,
2460133.500000000, A.D. 2023-Jul-08 00:00:00.0000, 1.559152398253265E+08, -2.529537071601412E+08, 1.131572100613613E+07,
2460140.500000000, A.D. 2023-Jul-15 00:00:00.0000, 1.658138120905239E+08, -2.435571226972750E+08, 1.222639106364091E+07,
$$EOE